STARLINK-3043           
1 49179U 21082BB  26161.04253716  .00000002  00000+0  79386-5 0  9996
2 49179  69.9995  21.5931 0002653 267.0898  92.9957 14.98329169260793
STARLINK-3059           
1 49181U 21082BD  26161.13063782  .00001717  00000+0  15175-3 0  9999
2 49181  70.0001  61.3828 0002882 273.9860  86.0969 14.98311359261018
STARLINK-3151           
1 49408U 21104A   26161.41911333  .00779509  32537-3  99316-3 0  9995
2 49408  53.2090 133.3826 0001016  57.2866 302.8266 16.06827292253183
STARLINK-3075           
1 49409U 21104B   26161.19778727 -.00000766  00000+0 -30062-4 0  9993
2 49409  53.1617 173.7828 0001452  99.9670 260.1486 15.08832906252603
STARLINK-3147           
1 49410U 21104C   26161.19138529 -.00000143  00000+0  91095-5 0  9997
2 49410  53.1626 173.8248 0001294  79.1045 281.0092 15.08829965252596
STARLINK-3162           
1 49411U 21104D   26161.18405189 -.00011073  00000+0 -68012-3 0  9992
2 49411  53.1625 163.8448 0001194  50.6081 309.5016 15.08763063252734
STARLINK-3157           
1 49413U 21104F   26161.18128277 -.00002200  00000+0 -12022-3 0  9996
2 49413  53.1631 163.8703 0001504  98.6532 261.4630 15.08822212252735
STARLINK-3146           
1 49414U 21104G   26161.31922548  .00000112  00000+0  25129-4 0  9996
2 49414  53.1638 173.2373 0001064  84.0602 276.0511 15.08833243252612
STARLINK-3159           
1 49415U 21104H   26161.30910877  .00000270  00000+0  35054-4 0  9991
2 49415  53.1608 163.2838 0001280  90.1965 269.9173 15.08828623252740
STARLINK-3133           
1 49416U 21104J   26161.31186531 -.00000374  00000+0 -54099-5 0  9993
2 49416  53.1626 173.2687 0001203  84.6288 275.4841 15.08835167252616
STARLINK-3154           
1 49417U 21104K   26161.27225898  .00000416  00000+0  44220-4 0  9998
2 49417  53.1629 163.0992 0001255  84.5646 275.5489 15.08838419252746
STARLINK-3111           
1 49418U 21104L   26161.30818383 -.00000028  00000+0  16309-4 0  9997
2 49418  53.1631 173.2848 0001255  87.1949 272.9187 15.08835459252600
STARLINK-3120           
1 49419U 21104M   26161.29714392  .00000011  00000+0  18763-4 0  9998
2 49419  53.1631 173.3346 0001243  76.0854 284.0276 15.08835464252603
STARLINK-3110           
1 49420U 21104N   26161.30450348 -.00000083  00000+0  12899-4 0  9994
2 49420  53.1640 173.3019 0001263  85.8784 274.2352 15.08835478252605
STARLINK-3112           
1 49421U 21104P   26160.74145352  .00009474  00000+0  61333-3 0  9996
2 49421  53.1608 175.6412 0000856  91.5890 268.5199 15.08789552252528
STARLINK-3161           
1 49422U 21104Q   26161.19878186  .00000133  00000+0  26459-4 0  9999
2 49422  53.1623 174.0956 0001556  60.0591 300.0555 15.08831624252581
STARLINK-3135           
1 49424U 21104S   26161.29346562  .00000142  00000+0  26992-4 0  9992
2 49424  53.1630 173.3524 0001287  83.7057 276.4081 15.08834843252603
STARLINK-3139           
1 49425U 21104T   26160.74979367  .00000310  00000+0  37556-4 0  9992
2 49425  53.1649 175.8086 0001326  98.2876 261.8266 15.08827261252539
STARLINK-3114           
1 49426U 21104U   26160.75619843  .00004972  00000+0  33055-3 0  9991
2 49426  53.1628 175.7673 0001123 100.0921 260.0197 15.08804357252520
STARLINK-3131           
1 49427U 21104V   26160.34866857 -.00001308  00000+0 -64094-4 0  9996
2 49427  53.1628 177.6105 0001879  98.5095 261.6110 15.08833101252478
STARLINK-3121           
1 49428U 21104W   26161.19041621 -.00000345  00000+0 -35807-5 0  9996
2 49428  53.1625 173.7300 0001305  81.2907 278.8233 15.08830387252609
STARLINK-3138           
1 49430U 21104Y   26161.29813966  .00001368  00000+0  10402-3 0  9995
2 49430  53.1634 173.6096 0001239  87.8109 272.3024 15.08837218252613
STARLINK-3153           
1 49431U 21104Z   26161.31556901 -.00000311  00000+0 -14768-5 0  9992
2 49431  53.1625 173.4345 0001144  86.5162 273.5960 15.08837073252610
STARLINK-3158           
1 49432U 21104AA  26161.30270406  .00000133  00000+0  26475-4 0  9992
2 49432  53.1642 163.3112 0001359  81.9123 278.2023 15.08830699252758
STARLINK-3079           
1 49433U 21104AB  26161.23641558  .00003283  00000+0  22413-3 0  9991
2 49433  53.1635 153.6089 0000877  94.9216 265.1876 15.08861186253978
STARLINK-3134           
1 49434U 21104AC  26160.74965421  .00002850  00000+0  19503-3 0  9990
2 49434  53.2157 175.9776 0001480  49.7745 310.3376 15.09232198253610
STARLINK-3117           
1 49435U 21104AD  26161.24106630  .00003892  00000+0  26248-3 0  9997
2 49435  53.1625 153.5881 0001340  89.2006 270.9139 15.08843731252889
STARLINK-3049           
1 49436U 21104AE  26161.24010520  .00000040  00000+0  20624-4 0  9995
2 49436  53.1614 153.5940 0001228  82.7361 277.3770 15.08834718252888
STARLINK-3130           
1 49437U 21104AF  26161.23274532  .00000694  00000+0  61727-4 0  9994
2 49437  53.1637 153.6258 0001286  87.8634 272.2504 15.08835855252882
STARLINK-3044           
1 49438U 21104AG  26161.15641031  .00000604  00000+0  56076-4 0  9990
2 49438  53.1656 153.9040 0001687  89.5716 270.5469 15.08836893252874
