OBJECT_NAME,OBJECT_ID,EPOCH,MEAN_MOTION,ECCENTRICITY,INCLINATION,RA_OF_ASC_NODE,ARG_OF_PERICENTER,MEAN_ANOMALY,EPHEMERIS_TYPE,CLASSIFICATION_TYPE,NORAD_CAT_ID,ELEMENT_SET_NO,REV_AT_EPOCH,BSTAR,MEAN_MOTION_DOT,MEAN_MOTION_DDOT
STARLINK-3043,2021-082BB,2026-06-10T01:01:15.210624,14.98329169,.00026537,69.9995,21.5931,267.0898,92.9957,0,U,49179,999,26079,.793863E-5,.2E-7,0
STARLINK-3059,2021-082BD,2026-06-10T03:08:07.107648,14.98311359,.00028827,70.0001,61.3828,273.9860,86.0969,0,U,49181,999,26101,.15174792E-3,.1717E-4,0
STARLINK-3151,2021-104A,2026-06-10T10:03:31.391712,16.06827292,.0001016,53.2090,133.3826,57.2866,302.8266,0,U,49408,999,25318,.99316E-3,.779509E-2,.32537E-3
STARLINK-3075,2021-104B,2026-06-10T04:44:48.820128,15.08832906,.00014526,53.1617,173.7828,99.9670,260.1486,0,U,49409,999,25260,-.30061728E-4,-.766E-5,0
STARLINK-3147,2021-104C,2026-06-10T04:35:35.689056,15.08829965,.00012943,53.1626,173.8248,79.1045,281.0092,0,U,49410,999,25259,.9109521E-5,-.143E-5,0
STARLINK-3162,2021-104D,2026-06-10T04:25:02.083296,15.08763063,.00011949,53.1625,163.8448,50.6081,309.5016,0,U,49411,999,25273,-.68011583E-3,-.11073E-3,0
STARLINK-3157,2021-104F,2026-06-10T04:21:02.831328,15.08822212,.00015045,53.1631,163.8703,98.6532,261.4630,0,U,49413,999,25273,-.12022319E-3,-.22E-4,0
STARLINK-3146,2021-104G,2026-06-10T07:39:41.081472,15.08833243,.00010647,53.1638,173.2373,84.0602,276.0511,0,U,49414,999,25261,.25128916E-4,.112E-5,0
STARLINK-3159,2021-104H,2026-06-10T07:25:06.997728,15.08828623,.00012808,53.1608,163.2838,90.1965,269.9173,0,U,49415,999,25274,.35054355E-4,.27E-5,0
STARLINK-3133,2021-104J,2026-06-10T07:29:05.162784,15.08835167,.00012038,53.1626,173.2687,84.6288,275.4841,0,U,49416,999,25261,-.5409878E-5,-.374E-5,0
STARLINK-3154,2021-104K,2026-06-10T06:32:03.175872,15.08838419,.00012558,53.1629,163.0992,84.5646,275.5489,0,U,49417,999,25274,.44220094E-4,.416E-5,0
STARLINK-3111,2021-104L,2026-06-10T07:23:47.082912,15.08835459,.0001255,53.1631,173.2848,87.1949,272.9187,0,U,49418,999,25260,.16308537E-4,-.28E-6,0
STARLINK-3120,2021-104M,2026-06-10T07:07:53.234688,15.08835464,.00012434,53.1631,173.3346,76.0854,284.0276,0,U,49419,999,25260,.18762909E-4,.11E-6,0
STARLINK-3110,2021-104N,2026-06-10T07:18:29.100672,15.08835478,.00012635,53.1640,173.3019,85.8784,274.2352,0,U,49420,999,25260,.12898989E-4,-.83E-6,0
STARLINK-3112,2021-104P,2026-06-09T17:47:41.584128,15.08789552,.0000856,53.1608,175.6412,91.5890,268.5199,0,U,49421,999,25252,.61333E-3,.9474E-4,0
STARLINK-3161,2021-104Q,2026-06-10T04:46:14.752704,15.08831624,.00015569,53.1623,174.0956,60.0591,300.0555,0,U,49422,999,25258,.2645863E-4,.133E-5,0
STARLINK-3135,2021-104S,2026-06-10T07:02:35.429568,15.08834843,.00012877,53.1630,173.3524,83.7057,276.4081,0,U,49424,999,25260,.26992359E-4,.142E-5,0
STARLINK-3139,2021-104T,2026-06-09T17:59:42.173088,15.08827261,.0001326,53.1649,175.8086,98.2876,261.8266,0,U,49425,999,25253,.37556E-4,.31E-5,0
STARLINK-3114,2021-104U,2026-06-09T18:08:55.544352,15.08804357,.0001123,53.1628,175.7673,100.0921,260.0197,0,U,49426,999,25252,.33055E-3,.4972E-4,0
STARLINK-3131,2021-104V,2026-06-09T08:22:04.964448,15.08833101,.00018796,53.1628,177.6105,98.5095,261.6110,0,U,49427,999,25247,-.6409372E-4,-.1308E-4,0
STARLINK-3121,2021-104W,2026-06-10T04:34:11.960544,15.08830387,.00013058,53.1625,173.7300,81.2907,278.8233,0,U,49428,999,25260,-.358071E-5,-.345E-5,0
STARLINK-3138,2021-104Y,2026-06-10T07:09:19.266624,15.08837218,.00012398,53.1634,173.6096,87.8109,272.3024,0,U,49430,999,25261,.10401587E-3,.1368E-4,0
STARLINK-3153,2021-104Z,2026-06-10T07:34:25.162464,15.08837073,.00011447,53.1625,173.4345,86.5162,273.5960,0,U,49431,999,25261,-.1476761E-5,-.311E-5,0
STARLINK-3158,2021-104AA,2026-06-10T07:15:53.630784,15.08830699,.00013595,53.1642,163.3112,81.9123,278.2023,0,U,49432,999,25275,.26475353E-4,.133E-5,0
STARLINK-3079,2021-104AB,2026-06-10T05:40:26.306112,15.08861186,.00008772,53.1635,153.6089,94.9216,265.1876,0,U,49433,999,25397,.22413087E-3,.3283E-4,0
STARLINK-3134,2021-104AC,2026-06-09T17:59:30.123744,15.09232198,.000148,53.2157,175.9776,49.7745,310.3376,0,U,49434,999,25361,.19503E-3,.285E-4,0
STARLINK-3117,2021-104AD,2026-06-10T05:47:08.128320,15.08843731,.00013404,53.1625,153.5881,89.2006,270.9139,0,U,49435,999,25288,.26247853E-3,.3892E-4,0
STARLINK-3049,2021-104AE,2026-06-10T05:45:45.089280,15.08834718,.00012281,53.1614,153.5940,82.7361,277.3770,0,U,49436,999,25288,.20623678E-4,.4E-6,0
STARLINK-3130,2021-104AF,2026-06-10T05:35:09.195648,15.08835855,.0001286,53.1637,153.6258,87.8634,272.2504,0,U,49437,999,25288,.61727144E-4,.694E-5,0
STARLINK-3044,2021-104AG,2026-06-10T03:45:13.850784,15.08836893,.00016878,53.1656,153.9040,89.5716,270.5469,0,U,49438,999,25287,.56075755E-4,.604E-5,0
